     2.100          NAVIGATION                              RINEX VERSION / TYPE
fic2rin                                 12/17/2016 00:22:54 PGM / RUN BY / DATE
                                                            END OF HEADER
 3 16 12 16 10  0  0.0 -.102862250060D-03 -.147792889038D-11  .000000000000D+00
     .520000000000D+02  .337187500000D+02  .487020286350D-08  .512519821468D+00
     .169314444065D-05  .409007654525D-03  .724568963051D-05  .515355320549D+04
     .468000000000D+06 -.242143869400D-07  .153053443670D+01  .465661287308D-07
     .959046542332D+00  .237531250000D+03  .855458010951D+00 -.811355224773D-08
     .433232331580D-09  .100000000000D+01  .192700000000D+04  .000000000000D+00
     .240000000000D+01  .000000000000D+00  .186264514923D-08  .520000000000D+02
     .460806000000D+06  .400000000000D+01
 4 16 12 16 10  0  0.0  .149528495967D-04 -.118234311230D-10  .000000000000D+00
     .144000000000D+03 -.896250000000D+02  .465519390751D-08  .161572206702D+01
    -.481493771076D-05  .131921551656D-01  .114832073450D-04  .515370517159D+04
     .468000000000D+06 -.234693288803D-06  .453283598613D+00 -.262632966042D-06
     .944349518714D+00  .151750000000D+03  .120474866765D+01 -.802497712965D-08
     .175007289756D-09  .100000000000D+01  .192700000000D+04  .000000000000D+00
     .240000000000D+01  .630000000000D+02 -.651925802231D-08  .144000000000D+03
     .460806000000D+06  .400000000000D+01
 5 16 12 16 10  0  0.0 -.718226656318D-04  .227373675443D-11  .000000000000D+00
     .530000000000D+02  .240625000000D+02  .509592655151D-08 -.147609751995D+01
     .125728547573D-05  .491323892493D-02  .750459730625D-05  .515364311981D+04
     .468000000000D+06  .100582838058D-06  .151589411139D+01 -.465661287308D-07
     .946057914447D+00  .226718750000D+03  .563216911034D+00 -.819462705339D-08
     .516807241382D-09  .100000000000D+01  .192700000000D+04  .000000000000D+00
     .240000000000D+01  .000000000000D+00 -.107102096081D-07  .530000000000D+02
     .460806000000D+06  .400000000000D+01
 6 16 12 16 10  0  0.0  .286644324660D-03  .500222085975D-11  .000000000000D+00
     .420000000000D+02 -.998437500000D+02  .412481467223D-08  .226272400349D+01
    -.509060919285D-05  .404155463912D-03  .123605132103D-04  .515359059143D+04
     .468000000000D+06 -.186264514923D-08  .480223790951D+00 -.204890966415D-07
     .966099287947D+00  .140531250000D+03 -.146168187107D+01 -.774353683511D-08
     .143934566881D-09  .100000000000D+01  .192700000000D+04  .000000000000D+00
     .240000000000D+01  .000000000000D+00  .419095158577D-08  .420000000000D+02
     .460806000000D+06  .400000000000D+01
 8 16 12 16 10  0  0.0 -.425986945629D-04 -.125055521494D-11  .000000000000D+00
     .120000000000D+02 -.100281250000D+03  .468412368398D-08 -.154307319972D+01
    -.515393912792D-05  .223708455451D-02  .292994081974D-05  .515355723190D+04
     .468000000000D+06 -.838190317154D-07 -.572875090341D+00 -.577419996262D-07
     .965418264472D+00  .327812500000D+03 -.968669978798D+00 -.836784855448D-08
    -.189293599124D-09  .100000000000D+01  .192700000000D+04  .000000000000D+00
     .240000000000D+01  .000000000000D+00  .512227416039D-08  .120000000000D+02
     .460806000000D+06  .400000000000D+01
 9 16 12 16 10  0  0.0  .264673028141D-03  .738964445191D-11  .000000000000D+00
     .430000000000D+02 -.206250000000D+02  .496449250533D-08 -.206193010581D+01
    -.114552676678D-05  .810206751339D-03  .688806176186D-05  .515371874237D+04
     .468000000000D+06  .167638063431D-07  .256845249566D+01  .353902578354D-07
     .954091856773D+00  .243812500000D+03  .174613377924D+01 -.815498254490D-08
    -.547522806523D-09  .100000000000D+01  .192700000000D+04  .000000000000D+00
     .240000000000D+01  .000000000000D+00  .139698386192D-08  .430000000000D+02
     .460806000000D+06  .400000000000D+01
10 16 12 16 10  0  0.0 -.115949194878D-03  .227373675443D-12  .000000000000D+00
     .410000000000D+02  .215000000000D+02  .478912805784D-08 -.154534160488D+00
     .938773155212D-06  .199203100055D-02  .741705298424D-05  .515367164040D+04
     .468000000000D+06  .149011611938D-07  .152670317567D+01 -.111758708954D-07
     .959247027940D+00  .235937500000D+03 -.295138547127D+01 -.809819446516D-08
     .354657630057D-09  .100000000000D+01  .192700000000D+04  .000000000000D+00
     .240000000000D+01  .000000000000D+00  .232830643654D-08  .410000000000D+02
     .460806000000D+06  .400000000000D+01
11 16 12 16 10  0  0.0 -.672412570566D-03  .352429196937D-11  .000000000000D+00
     .103000000000D+03 -.133125000000D+03  .584202905825D-08  .129879552944D+01
    -.718049705029D-05  .166865780484D-01  .885128974915D-05  .515369572258D+04
     .468000000000D+06 -.152736902237D-06  .975761940859D-01 -.415369868279D-06
     .899355259791D+00  .179437500000D+03  .160520278780D+01 -.873572102070D-08
    -.375015620906D-10  .100000000000D+01  .192700000000D+04  .000000000000D+00
     .340000000000D+01  .000000000000D+00 -.121071934700D-07  .103000000000D+03
     .460806000000D+06  .400000000000D+01
13 16 12 16 10  0  0.0 -.602677464485D-04 -.193267624127D-11  .000000000000D+00
     .330000000000D+02 -.167187500000D+02  .443839916285D-08  .227324071968D+01
    -.813975930214D-06  .405776686966D-02  .775046646595D-05  .515368073654D+04
     .468000000000D+06  .707805156708D-07  .269219307761D+01  .763684511185D-07
     .970418198087D+00  .234875000000D+03  .187393370285D+01 -.782746890264D-08
    -.589667419158D-09  .100000000000D+01  .192700000000D+04  .000000000000D+00
     .240000000000D+01  .000000000000D+00 -.111758708954D-07  .330000000000D+02
     .460806000000D+06  .400000000000D+01
14 16 12 16 10  0  0.0 -.497633591294D-04 -.170530256582D-11  .000000000000D+00
     .900000000000D+02 -.222187500000D+02  .458269088747D-08 -.267605434237D+01
    -.106915831566D-05  .864666502457D-02  .723637640476D-05  .515360337067D+04
     .468000000000D+06  .763684511185D-07  .265384134598D+01 -.651925802231D-07
     .962887404491D+00  .241093750000D+03 -.194992056300D+01 -.785282710177D-08
    -.482520098899D-09  .100000000000D+01  .192700000000D+04  .000000000000D+00
     .340000000000D+01  .000000000000D+00 -.931322574615D-08  .900000000000D+02
     .460806000000D+06  .400000000000D+01
15 16 12 16 10  0  0.0 -.337613746524D-03 -.113686837722D-11  .000000000000D+00
     .490000000000D+02 -.197500000000D+02  .553773066871D-08 -.306178125891D+01
    -.107474625111D-05  .892858312000D-02  .628456473351D-05  .515370777893D+04
     .468000000000D+06 -.260770320892D-07  .251089521707D+01 -.838190317154D-07
     .929700747985D+00  .242718750000D+03  .548257662275D+00 -.838177770611D-08
    -.432160858377D-09  .100000000000D+01  .192700000000D+04  .000000000000D+00
     .240000000000D+01  .000000000000D+00 -.107102096081D-07  .490000000000D+02
     .460806000000D+06  .400000000000D+01
16 16 12 16 10  0  0.0  .195889733732D-04  .136424205266D-11  .000000000000D+00
     .540000000000D+02  .823437500000D+02  .395480759075D-08 -.129336661412D+01
     .423565506935D-05  .886138947681D-02  .282749533653D-05  .515361711884D+04
     .468000000000D+06  .968575477600D-07 -.153710933036D+01 -.987201929092D-07
     .990138677582D+00  .335343750000D+03  .380546986944D+00 -.804926385558D-08
     .374301305437D-09  .100000000000D+01  .192700000000D+04  .000000000000D+00
     .240000000000D+01  .000000000000D+00 -.102445483208D-07  .540000000000D+02
     .460806000000D+06  .400000000000D+01
17 16 12 16 10  0  0.0 -.196903478354D-03  .795807864051D-12  .000000000000D+00
     .940000000000D+02 -.127906250000D+03  .429267880730D-08 -.235352170668D+01
    -.646524131298D-05  .115469485754D-01  .300072133541D-05  .515355426979D+04
     .468000000000D+06  .130385160446D-06 -.517515654524D+00  .856816768646D-07
     .978635700059D+00  .326687500000D+03 -.189327670998D+01 -.808390815579D-08
    -.166078346401D-09  .100000000000D+01  .192700000000D+04  .000000000000D+00
     .340000000000D+01  .000000000000D+00 -.107102096081D-07  .940000000000D+02
     .460806000000D+06  .400000000000D+01
18 16 12 16 10  0  0.0  .584424007684D-03  .295585778076D-11  .000000000000D+00
     .990000000000D+02  .284687500000D+02  .576166856805D-08 -.743854070954D+00
     .162795186043D-05  .173339209286D-01  .756606459618D-05  .515372580910D+04
     .468000000000D+06 -.186264514923D-06  .149039266680D+01  .208616256714D-06
     .924789120493D+00  .218187500000D+03 -.184496916982D+01 -.884036823682D-08
     .411802867528D-09  .100000000000D+01  .192700000000D+04  .000000000000D+00
     .340000000000D+01  .000000000000D+00 -.111758708954D-07  .990000000000D+02
     .460806000000D+06  .400000000000D+01
20 16 12 16 10  0  0.0  .451007857919D-03  .181898940355D-11  .000000000000D+00
     .109000000000D+03  .253125000000D+02  .555487423995D-08  .312357451042D+01
     .132992863655D-05  .476260564756D-02  .787340104580D-05  .515360765839D+04
     .468000000000D+06  .171363353729D-06  .143882592803D+01 -.223517417908D-07
     .926131808650D+00  .208312500000D+03  .151258145190D+01 -.840785022071D-08
     .492163357722D-09  .100000000000D+01  .192700000000D+04  .000000000000D+00
     .240000000000D+01  .000000000000D+00 -.838190317154D-08  .109000000000D+03
     .460806000000D+06  .400000000000D+01
21 16 12 16 10  0  0.0 -.528603326529D-03  .113686837722D-11  .000000000000D+00
     .780000000000D+02 -.840625000000D+02  .504771025739D-08  .181214013388D+00
    -.423006713390D-05  .235274960287D-01  .107996165752D-04  .515377645111D+04
     .468000000000D+06 -.361353158951D-06  .449243936127D+00  .279396772385D-07
     .938462527165D+00  .168062500000D+03 -.173329073072D+01 -.858035740633D-08
     .921466954226D-10  .100000000000D+01  .192700000000D+04  .000000000000D+00
     .240000000000D+01  .000000000000D+00 -.977888703346D-08  .780000000000D+02
     .460806000000D+06  .400000000000D+01
